GLOBALSTAR M084         
1 38040U 11080A   25297.38249913 -.00000090  00000+0  75486-4 0  9992
2 38040  52.0034  15.1555 0000243  82.3874 355.2922 12.62269601638981
GLOBALSTAR M080         
1 38041U 11080B   25297.69013691 -.00000087  00000+0  95332-4 0  9997
2 38041  52.0085  15.8564 0000966 104.5157  61.0350 12.62269836639144
GLOBALSTAR M082         
1 38042U 11080C   25297.54672483 -.00000079  00000+0  13658-3 0  9993
2 38042  52.0092 331.7701 0000687 104.7771  59.2314 12.62264151639830
GLOBALSTAR M092         
1 38043U 11080D   25297.76066558 -.00000102  00000+0  10665-4 0  9991
2 38043  52.0091  61.4992 0000734 103.7067  72.1074 12.62267254638315
GLOBALSTAR M090         
1 38044U 11080E   25297.38190553 -.00000080  00000+0  13203-3 0  9998
2 38044  52.0140 326.1520 0000396 115.7584 258.0289 12.62263342639936
GLOBALSTAR M086         
1 38045U 11080F   25297.51629007 -.00000085  00000+0  10690-3 0  9997
2 38045  51.9910 326.0561 0000694 235.4031 276.0094 12.62278502639895
GLOBALSTAR M097         
1 39072U 13005A   25297.58977213 -.00000085  00000+0  10642-3 0  9996
2 39072  52.0038 240.5156 0000484  77.9295 282.1626 12.62266710587155
GLOBALSTAR M093         
1 39073U 13005B   25297.72214292 -.00000074  00000+0  16382-3 0  9999
2 39073  52.0097 233.3708 0000536  98.3804 261.7124 12.62265589587121
